{
  "type": "FeatureCollection",
  "features": [
    {
      "type": "Feature",
      "properties": {
        "norad_id": 58647,
        "name": "TIANMU-1 13",
        "group": "weather",
        "lat": -82.24915980884117,
        "lon": 85.22213249157599,
        "alt_km": 495.9174368491367,
        "timestamp": "2025-12-19T22:41:52.022027+00:00",
        "meta_object_name": "TIANMU-1 13",
        "meta_object_id": "2023-205C",
        "meta_epoch": "2025-12-19T18:21:21.206592",
        "meta_mean_motion": 15.24607764,
        "meta_eccentricity": 0.0006242,
        "meta_inclination": 97.3612,
        "meta_ra_of_asc_node": 13.2719,
        "meta_arg_of_pericenter": 235.7682,
        "meta_mean_anomaly": 124.2965,
        "meta_ephemeris_type": 0,
        "meta_classification_type": "U",
        "meta_norad_cat_id": 58647,
        "meta_element_set_no": 999,
        "meta_rev_at_epoch": 11014,
        "meta_bstar": 0.00018559,
        "meta_mean_motion_dot": 4.508e-05,
        "meta_mean_motion_ddot": 0,
        "tle_line1": "1 58647U 23205C   25353.76482878  .00004508  00000+0  18559-3 0  9997",
        "tle_line2": "2 58647  97.3612  13.2719 0006242 235.7682 124.2965 15.24607764110148"
      },
      "geometry": {
        "type": "Point",
        "coordinates": [
          85.22213249157599,
          -82.24915980884117
        ]
      }
    },
    {
      "type": "Feature",
      "properties": {
        "norad_id": 58648,
        "name": "TIANMU-1 14",
        "group": "weather",
        "lat": 2.9108390920570284,
        "lon": 12.415434152390242,
        "alt_km": 497.25395219865914,
        "timestamp": "2025-12-19T22:41:52.022044+00:00",
        "meta_object_name": "TIANMU-1 14",
        "meta_object_id": "2023-205D",
        "meta_epoch": "2025-12-19T17:57:33.564096",
        "meta_mean_motion": 15.2459086,
        "meta_eccentricity": 0.0006976,
        "meta_inclination": 97.3544,
        "meta_ra_of_asc_node": 12.5979,
        "meta_arg_of_pericenter": 241.7889,
        "meta_mean_anomaly": 118.2645,
        "meta_ephemeris_type": 0,
        "meta_classification_type": "U",
        "meta_norad_cat_id": 58648,
        "meta_element_set_no": 999,
        "meta_rev_at_epoch": 11014,
        "meta_bstar": 0.00018855,
        "meta_mean_motion_dot": 4.579e-05,
        "meta_mean_motion_ddot": 0,
        "tle_line1": "1 58648U 23205D   25353.74830514  .00004579  00000+0  18855-3 0  9997",
        "tle_line2": "2 58648  97.3544  12.5979 0006976 241.7889 118.2645 15.24590860110149"
      },
      "geometry": {
        "type": "Point",
        "coordinates": [
          12.415434152390242,
          2.9108390920570284
        ]
      }
    },
    {
      "type": "Feature",
      "properties": {
        "norad_id": 58660,
        "name": "TIANMU-1 19",
        "group": "weather",
        "lat": -14.905587964451454,
        "lon": 106.9624444195392,
        "alt_km": 488.3709250821139,
        "timestamp": "2025-12-19T22:41:52.022060+00:00",
        "meta_object_name": "TIANMU-1 19",
        "meta_object_id": "2023-208A",
        "meta_epoch": "2025-12-19T18:02:53.905920",
        "meta_mean_motion": 15.27970659,
        "meta_eccentricity": 0.0004426,
        "meta_inclination": 97.4395,
        "meta_ra_of_asc_node": 104.7758,
        "meta_arg_of_pericenter": 222.0251,
        "meta_mean_anomaly": 138.065,
        "meta_ephemeris_type": 0,
        "meta_classification_type": "U",
        "meta_norad_cat_id": 58660,
        "meta_element_set_no": 999,
        "meta_rev_at_epoch": 10989,
        "meta_bstar": 0.00023988,
        "meta_mean_motion_dot": 6.473e-05,
        "meta_mean_motion_ddot": 0,
        "tle_line1": "1 58660U 23208A   25353.75201280  .00006473  00000+0  23988-3 0  9995",
        "tle_line2": "2 58660  97.4395 104.7758 0004426 222.0251 138.0650 15.27970659109897"
      },
      "geometry": {
        "type": "Point",
        "coordinates": [
          106.9624444195392,
          -14.905587964451454
        ]
      }
    },
    {
      "type": "Feature",
      "properties": {
        "norad_id": 58661,
        "name": "TIANMU-1 20",
        "group": "weather",
        "lat": 82.56120762556357,
        "lon": 14.88665127471925,
        "alt_km": 474.5253547487828,
        "timestamp": "2025-12-19T22:41:52.022077+00:00",
        "meta_object_name": "TIANMU-1 20",
        "meta_object_id": "2023-208B",
        "meta_epoch": "2025-12-19T17:35:36.415968",
        "meta_mean_motion": 15.29160846,
        "meta_eccentricity": 0.0006521,
        "meta_inclination": 97.4333,
        "meta_ra_of_asc_node": 105.2114,
        "meta_arg_of_pericenter": 236.3075,
        "meta_mean_anomaly": 123.7543,
        "meta_ephemeris_type": 0,
        "meta_classification_type": "U",
        "meta_norad_cat_id": 58661,
        "meta_element_set_no": 999,
        "meta_rev_at_epoch": 10996,
        "meta_bstar": 0.00024711,
        "meta_mean_motion_dot": 6.921e-05,
        "meta_mean_motion_ddot": 0,
        "tle_line1": "1 58661U 23208B   25353.73306037  .00006921  00000+0  24711-3 0  9993",
        "tle_line2": "2 58661  97.4333 105.2114 0006521 236.3075 123.7543 15.29160846109963"
      },
      "geometry": {
        "type": "Point",
        "coordinates": [
          14.88665127471925,
          82.56120762556357
        ]
      }
    },
    {
      "type": "Feature",
      "properties": {
        "norad_id": 58662,
        "name": "TIANMU-1 21",
        "group": "weather",
        "lat": 19.62274618511204,
        "lon": -69.96579171621099,
        "alt_km": 469.52583859571223,
        "timestamp": "2025-12-19T22:41:52.022093+00:00",
        "meta_object_name": "TIANMU-1 21",
        "meta_object_id": "2023-208C",
        "meta_epoch": "2025-12-19T18:51:53.100864",
        "meta_mean_motion": 15.31693679,
        "meta_eccentricity": 0.0006166,
        "meta_inclination": 97.438,
        "meta_ra_of_asc_node": 107.2042,
        "meta_arg_of_pericenter": 230.5202,
        "meta_mean_anomaly": 129.5494,
        "meta_ephemeris_type": 0,
        "meta_classification_type": "U",
        "meta_norad_cat_id": 58662,
        "meta_element_set_no": 999,
        "meta_rev_at_epoch": 11007,
        "meta_bstar": 0.00025839,
        "meta_mean_motion_dot": 7.833e-05,
        "meta_mean_motion_ddot": 0,
        "tle_line1": "1 58662U 23208C   25353.78603126  .00007833  00000+0  25839-3 0  9993",
        "tle_line2": "2 58662  97.4380 107.2042 0006166 230.5202 129.5494 15.31693679110072"
      },
      "geometry": {
        "type": "Point",
        "coordinates": [
          -69.96579171621099,
          19.62274618511204
        ]
      }
    },
    {
      "type": "Feature",
      "properties": {
        "norad_id": 58663,
        "name": "TIANMU-1 22",
        "group": "weather",
        "lat": -20.144188418749863,
        "lon": 107.7721211677013,
        "alt_km": 487.9477394302794,
        "timestamp": "2025-12-19T22:41:52.022109+00:00",
        "meta_object_name": "TIANMU-1 22",
        "meta_object_id": "2023-208D",
        "meta_epoch": "2025-12-19T18:04:14.181024",
        "meta_mean_motion": 15.27716404,
        "meta_eccentricity": 0.0002733,
        "meta_inclination": 97.4389,
        "meta_ra_of_asc_node": 104.8326,
        "meta_arg_of_pericenter": 249.9332,
        "meta_mean_anomaly": 110.1614,
        "meta_ephemeris_type": 0,
        "meta_classification_type": "U",
        "meta_norad_cat_id": 58663,
        "meta_element_set_no": 999,
        "meta_rev_at_epoch": 10990,
        "meta_bstar": 0.00022216,
        "meta_mean_motion_dot": 5.942e-05,
        "meta_mean_motion_ddot": 0,
        "tle_line1": "1 58663U 23208D   25353.75294191  .00005942  00000+0  22216-3 0  9994",
        "tle_line2": "2 58663  97.4389 104.8326 0002733 249.9332 110.1614 15.27716404109901"
      },
      "geometry": {
        "type": "Point",
        "coordinates": [
          107.7721211677013,
          -20.144188418749863
        ]
      }
    },
    {
      "type": "Feature",
      "properties": {
        "norad_id": 58700,
        "name": "TIANMU-1 15",
        "group": "weather",
        "lat": 26.026802961588896,
        "lon": 171.7183123446349,
        "alt_km": 493.9293361440523,
        "timestamp": "2025-12-19T22:41:52.022128+00:00",
        "meta_object_name": "TIANMU-1 15",
        "meta_object_id": "2024-004A",
        "meta_epoch": "2025-12-19T17:51:25.081056",
        "meta_mean_motion": 15.24493486,
        "meta_eccentricity": 0.0005942,
        "meta_inclination": 97.4621,
        "meta_ra_of_asc_node": 175.1871,
        "meta_arg_of_pericenter": 260.4937,
        "meta_mean_anomaly": 99.5629,
        "meta_ephemeris_type": 0,
        "meta_classification_type": "U",
        "meta_norad_cat_id": 58700,
        "meta_element_set_no": 999,
        "meta_rev_at_epoch": 10841,
        "meta_bstar": 0.00020169,
        "meta_mean_motion_dot": 4.887e-05,
        "meta_mean_motion_ddot": 0,
        "tle_line1": "1 58700U 24004A   25353.74404029  .00004887  00000+0  20169-3 0  9995",
        "tle_line2": "2 58700  97.4621 175.1871 0005942 260.4937  99.5629 15.24493486108412"
      },
      "geometry": {
        "type": "Point",
        "coordinates": [
          171.7183123446349,
          26.026802961588896
        ]
      }
    }
  ]
}